[{"OBJECT_NAME":"TRANSPORTER-15 OBJECT CY","OBJECT_ID":"2025-276CY","EPOCH":"2026-03-09T16:54:57.446784","MEAN_MOTION":15.1927389,"ECCENTRICITY":8.727e-5,"INCLINATION":97.4254,"RA_OF_ASC_NODE":144.0461,"ARG_OF_PERICENTER":100.2944,"MEAN_ANOMALY":259.8389,"EPHEMERIS_TYPE":0,"CLASSIFICATION_TYPE":"U","NORAD_CAT_ID":66760,"ELEMENT_SET_NO":999,"REV_AT_EPOCH":1532,"BSTAR":0.00030148075,"MEAN_MOTION_DOT":6.292e-5,"MEAN_MOTION_DDOT":0},{"OBJECT_NAME":"CARBSAR","OBJECT_ID":"2026-004AL","EPOCH":"2026-03-09T21:38:55.142304","MEAN_MOTION":15.18376766,"ECCENTRICITY":0.00049276,"INCLINATION":97.4551,"RA_OF_ASC_NODE":69.3924,"ARG_OF_PERICENTER":346.0062,"MEAN_ANOMALY":14.1035,"EPHEMERIS_TYPE":0,"CLASSIFICATION_TYPE":"U","NORAD_CAT_ID":67397,"ELEMENT_SET_NO":999,"REV_AT_EPOCH":869,"BSTAR":0.00041216985,"MEAN_MOTION_DOT":8.41e-5,"MEAN_MOTION_DDOT":0}]
